name,address,borough,zip
*commodities/all Nat Co-d,165 1st Ave,New York,10003
1201 Deli And Grill,1201 Avenue U,Brooklyn,11229
1252 Deli Grocery Corp,1252 Saint Nicholas Ave,New York,10032
1408 Saint Nicholas Deli,1408 Saint Nicholas Ave,New York,10033
149 Deli,395 E 149th St,Bronx,10455
1613 Food Deli,1613 St Nicholas Ave,New York,10040
1624 Deli Grocery,1624 Newkirk,Brooklyn,11226
197 8th Avenue Deli,197 8th Ave,New York,10011
1st Avenue Deli,18 1st Ave,New York,10009
2296 Keyfood Corporation,138-37 Queens Blvd,Queens,11435
234 Deli,234 8th Ave,New York,10011
239 Deli,239 8th Ave,New York,10011
24hr Newstand & Grocery,1521 Kings Highway,Brooklyn,11229
3 Star Deli Grocery Inc,1045 Saint Nicholas Ave,New York,10032
37st Food Market Deli,480 10th Ave,New York,10018
4 Way Deli,251 6th Ave,New York,10014
442 Riverdale Deli,442 Riverdale Ave,Yonkers,10705
6th Avenue News & Tobbaco,488 6th Ave,New York,10011
7 Seas Grocery,235 Bushwick Ave,Brooklyn,11206
793 Wykoff Deli,7-93 Wyckoff Ave,Ridgewood,11385
810 Grand Deli,810 Grand St,Brooklyn,11211
85th Street Deli,85-01 Jamaica Ave,Woodhaven,11421
91st Ave Food Corp,89-50 92nd St,Woodhaven,11421
A & S Forest Food,607 Forest Ave,Staten Island,10310
A & T Grocery,2908 Stillwell Ave,Brooklyn,11224
A.n.s Deli,523 Grand St,New York,10002
Abington Square Market,1 Abington Square,New York,10014
Aden Food Market Corp,351 Bedford Ave,Brooklyn,11211
Aden Gourmet Deli,244 Roebling St,Brooklyn,11211
Alaska Deli,108 9th Ave,New York,10011
All Night Candy Corner Corp,37-01 31st Ave,Astoria,11103
Amazing Deals,1520 Ave J,Brooklyn,11230
American Choice Gourmet Deli,218 Broadway,Brooklyn,11211
American Deli & Market,97 Franklin St,Brooklyn,11222
Americo Gas,1264 Randall Ave,Bronx,10474
Amish Farms-240 East 45 St,240 E 45th St,New York,10017
Amish Manhatten Farm Mkt,731 9th Ave,New York,10019
Amoco Gas,118-11 Atlantic Ave,Richmond Hill,11418
Amys Deli,71-06 Kissena Blvd,Flushing,11367
Andys Deli,106 7th Ave S,New York,10014
Andys Deli,142 9th Ave,New York,10011
Angelos Superette,3304 Amboy Rd,Staten Island,10306
Annadale Ro Corp,849 Annadale Rd,Staten Island,10312
Annadale Smoke Shop,827 Annadale Rd,Staten Island,10312
Antique Cafe And Bakery,909 3rd Ave,New York,10022
Apple Market,2541 Ocean Ave,Brooklyn,11229
Apple Tree,1225 Amsterdam Ave,New York,10027
Ara/nyu Sidestein Mkt^^,11 University Pl,New York,10003
Armstrong Deli,4295 Amboy Rd,Staten Island,10312
Around The Clock,149 Havemeyer St,Brooklyn,11211
Art Lovers Cafe,180 9th Ave,New York,10011
Asian Grocery,1510 Cortelyou Rd,Brooklyn,11226
Associate Mktplace (dar),44-07 Greenpoint Ave,Sunnyside,11104
Astoria Shell Tire Pros,43-20 Astoria Blvd,Astoria,11103
Aunt Butchies,4 South St,New York,10004
Ave U Candy Store,1507 Avenue U,Brooklyn,11229
Avenue A Classic Food,115 Avenue A,New York,10009
Avenue A Deli,24 Ave A,New York,10009
Avenue Chemist,45-01 30th Ave,Astoria,11103
Avenue U Gourmet Deli & Grocery,2950 Avenue U,Brooklyn,11229
Awesome Deli,60 Broadway,Brooklyn,11249
B & D Deli,800 Long Beach Blvd,Long Beach,11561
Bagh Deli,118-22 Atlantic Ave,South Richmond Hill,11419
Barcelona Grocery,1601 Westchester,Bronx,10472
Bay Parkway Grocery,8511 Bay Parkway,Brooklyn,11214
Beachstone Beverage Inc,157-34 96th St,Howard Beach,11414
Beca Beverage Inc.,42-65 Kissena Blvd,Flushing,11355
Bedford Fruit Market,146 Bedford Ave,Brooklyn,11249
Bens Deli Grocery,32 Ave B,New York,10009
Berry Fresh Farm,43-26 Ditmars Blvd,Astoria,11105
Best Choice Convenience,30-03 Astoria Blvd,Astoria,11102
Best Deli And Grill,201 W 242nd St,Bronx,10471
Best Deli Grocery,671 Bushwick Ave,Brooklyn,11211
Best Deli,10-01 Wyckoff Ave,Ridgewood,11385
Best Price Deli,196 1st Ave,New York,10009
Best Yet Market - East Rockaway,492 Atlantic Ave,East Rockaway,11518
Best Yet Market,19-30 37th St,Astoria,11105
Best Yet Of Tribeca,316 Greenwich St,New York,10013
Best Yet,2187 8th Ave,New York,10026
Best Yet,3350 Hillside Ave,New Hyde Park,11040
Bethel Gourmet,79 Greenwich,New York,10014
Bg Nyc Dennis Samples,Nyc Dennis T,Nyc,11378
Big Apple Food Market,219 East Broadway,New York,10002
Big Apple,671 Grand St,Brooklyn,11211
Big Boy Gourmet,244 W 14th St,New York,10011
Big Deal Supermarket,1018 Morris Park Ave,Bronx,10462
Billys Marketplace,8-70 Cypress Ave,Ridgewood,11385
Blackstone Coffee Roasters,502 Hudson St,New York,10014
Bleeker Farm,272 Bleecker St,New York,10014
Blizzard Beverage,149-17 9th Ave,Whitestone,11357
Blue Star Deli,715 Lorimer St,Brooklyn,11211
Bravo - Dekalb,844 De Kalb Ave,Brooklyn,11221
Bravo Grand Concourse,2285 Grand Concourse,Bronx,10453
Bravo Supermarket,785 Grand St,Brooklyn,11211
Broadway Famous Deli,4879 Broadway,New York,10034
Broadway Finest,3620 Broadway,New York,10031
Broadway Gourmet,584-588 Broadway,New York,10012
Broadway Grab & Go,395 Broadway,Brooklyn,11211
Broadway Natural,30-07 Broadway,Astoria,11106
Broadway Organic,799 Broadway,Brooklyn,11206
Broadway Wholesome Food & Beer,3578 Broadway,New York,10031
Bronx Bull Beverage Llc,76-07 Ditmars Blvd,East Elmhurst,11370
Brooklyn Beer & Soda,507 Flatbush Ave,Brooklyn,11225
Brooklyn Gourmet,313 Bedford Ave,Brooklyn,11211
Brooklyn Market,8102 3rd Ave,Brooklyn,11209
Brooklyn Natural,49 Bogart St,Brooklyn,11206
Brooklyn Standard 2,766 Grand St,Brooklyn,11211
Brothers Grocery,542 E 14th St,New York,10009
Brownies Cafe At Columbia,1172 Amsterdam Ave,New York,10027
Bushwick Deli & Grocery,285 Bushwick Ave,Brooklyn,11206
Bushwick Deli Grill,413 Bushwick Ave,Brooklyn,11206
Bushwick Deli,1449 Myrtle Ave,Brooklyn,11237
Butter Beans Kitchen @ Unicef,3 United Nations Plz,New York,10017
Cabanilla Corp,19-30 80th St,East Elmhurst,11370
Cafe Bravo,352 9th Ave,New York,10001
Cafe Europa - 2 Park Ave,2 Park Ave,New York,10016
Cafe Hestia,686 3rd Ave,New York,10017
Cafe One,1619 Amsterdam Ave,New York,10031
Caffe Benne,208 Avenue A,New York,10009
Campo Deli Grocery,216 Ave B,New York,10009
Campus Deli,1606 Amsterdam Ave,New York,10031
Canal Iconic Magazines,385 Canal St,New York,10013
Canal Street Newstand,52 Canal St,New York,10002
Cardsmart,3259 Richmond Ave,Staten Island,10312
Caton Ave Deli N Luchenoette,1818 Caton Ave,Brooklyn,11226
Central Organics,87 Central Ave,Brooklyn,11206
Chartwell - Bronxville School District,177 Pondfield Rd,Bronxville,10708
Chelsea Deli And Pizza,301 10th Ave,New York,10001
Chelsea Fine Food,300 8th Ave,New York,10001
Chelsea Hypermarket,366 W 23rd St,New York,10011
Chelsea Square Market,130 10th Ave,New York,10011
Cherry Tree,4051 Broadway,New York,10032
Chick Pea,2 W 46th St,New York,10036
Chick Pea,45 E 45th St,New York,10017
Church Ave Grill,1724 Church Ave,Brooklyn,11218
Church Avenue Food,111 Church Ave,Brooklyn,11218
Circle 7 Deli,1507 Gravesend Neck Rd,Brooklyn,11229
Circle Beverage,75-32 Parsons Blvd,Fresh Meadows,11366
Circle K,203 E Park Ave,Long Beach,11561
Citgo - Queens Blvd,36-20 Queens Blvd,Sunnyside,11101
Citgo,600 Pelham Pkwy S,Bronx,10462
City Acres Market,70 Pine St,New York,10005
City Gourmet Market,338 8th Ave,New York,10001
City Gourmet,535 9th Ave,New York,10018
Classic Service Car Wash,1859 Utica Ave,Brooklyn,11234
Clay Deli,1115 Manhattan Deli,Brooklyn,11222
Coco Moka,Penn Station,New York,10001
Coffee Z,30 Newkirk Plaza,Brooklyn,11226
Community Deli,857 E 241st St,Bronx,10470
Constellation Culinary - Cornell Tech,2 W Loop Rd,New York,10044
Convenience News,22-44 31st St,Astoria,11105
Convenience Store,1924 Kings Highway,Brooklyn,11229
Corner Grocers,140 Orchard St,New York,10002
Cozy Food Corp,565 Grand St,New York,10002
Crescent Gourmet Deli,27-02 Crescent St,Astoria,11102
Cross County Citco/car Wash,95 Vredenburgh Ave,Yonkers,10704
Crown Heights International Food,840 E New York Ave,Brooklyn,11203
D&d Deli,289 Hudson St,New York,10013
Daisy Beverage,10 Marion Pl,Yonkers,10705
Daves Gourmet,1944 1st Ave,New York,10029
Davids Auto Repair,302 Mcguinness,Brooklyn,11222
Day & Night,73 Bushwick Ave,Brooklyn,11211
Dear Irving At Aliz Hotel,310 W 40th St,New York,10018
Deli & Grocery 362,376 Hewes St,Brooklyn,11211
Deli 141,141 4th Ave,New York,10003
Deli Food Center,79 E 18th St,Brooklyn,11226
Di Falco Beverage,53 Dexter Ave,Staten Island,10309
Ditmars Supermarket,46-14 Ditmars Blvd,Astoria,11105
Diviera Drive,131 Berry St,Brooklyn,11249
Dominguez Grocery,1004 Flushing Ave,Brooklyn,11237
Don Juan Deli Grocery,110 Forsyth St,New York,10002
Downtown Natural Market,1701 Church Ave,Brooklyn,11226
Dunwoodie Deli & Dairy,325 Yonkers Ave,Yonkers,10701
Dyckman Deli,201 Dyckman St,New York,10040
E & P Beverage Corp,1000 Ocean Pkwy,Brooklyn,11230
E & S Wholesale,159 Essex St,New York,10002
E Smoke And Convenience,618 8th Ave,New York,10018
E Village Fruit,229 Ave B,New York,10009
E2 Mini Mart,52 Rivington St,New York,10002
Early Bird Smoke Shop,91 Norman Ave,Brooklyn,11222
East 18th Street Deli,57 E 18th St,Brooklyn,11226
East Village Farms,69 2nd Ave,New York,10003
East Village Finest Deli,50 Ave B,New York,10009
Edwys Grocery,274 S 4th Ave,Mount Vernon,10550
Eighth Avenue Gourmet Deli,134 8th Ave,New York,10011
El Clasico Candy Corp,969 Manhattan Ave,Brooklyn,11222
Eleganza Gourmet,1 Convent Ave,New York,10027
Elma Farms Market (zeytuna),17 Battery Place,New York,10004
Emigrant Savings Bank,6 E 43rd St,New York,10017
Emmons Deli,1729 Emmons Ave,Brooklyn,11235
Empire Deli,245 9th Ave,New York,10001
Empire Deli,42-16 30th Ave,Astoria,11103
Epicurean Market,45 University Place,New York,10003
Esayi Pizza & Deli,2461 Adam Clayton Powell Jr Blvd,New York,10030
Essen,160 Varick St,New York,10013
Evergreen,476 6th Ave,New York,10011
Exquisite Grill Deli,521 Lenox Ave,New York,10037
F & B Organic,172 Havemeyer St,Brooklyn,11211
Family Community Deli & Luncheonette Cor,41 Saint Nicholas Ter,New York,10027
Family Grocery And Deli,107-27 Atlantic Ave,Richmond Hill,11418
Farmers Deli,723 Grand St,Brooklyn,11211
Farmers Market,369 W 9th St,Brooklyn,11204
Farmers Market,64 W 9th St,New York,10011
Fast Break Inc.,104-19 Queens Blvd,Forest Hills,11375
Fast Break News,460 W 34th St,New York,10001
Fine & Fare - Ogden Ave,1136 Ogden Ave,Bronx,10452
Finest Deli,171 Bleecker St,New York,10012
Fitness Gourmet,162 1st Ave,New York,10009
Food Cellar & Co.,4-85 47th Rd,Long Island City,11101
Food Cellar Market,43-18 Crescent St,Long Island City,11101
Food Dynasty,1525 86th St,Brooklyn,11228
Food Dynasty,50 Van Cortlandt Ave W,Bronx,10463
Food Dynasty,7414 3rd Ave,Brooklyn,11209
Food Fair,433 W 34th St,New York,10001
Food Kick,630 W 52nd St,New York,10019
Food Story Natural Market,40 Bogart St,Brooklyn,11206
Food Story Natural,23-38 31st St,Astoria,11105
Food Story,1552 Myrtle Ave,Brooklyn,11237
Foodmart,111 2nd Ave,New York,10003
Forest Superette,350 Forest Ave,Staten Island,10301
Four Season Grill,98 Wyckoff Ave,Brooklyn,11237
Franklin Corner Cafe,210 Franklin St,Brooklyn,11222
Franks Market Place,807 W 187th St,New York,10033
Fresh & Save - Woodside,62-09 Roosevelt Ave,Woodside,11377
Fresh Direct V# 12494,630 Flushing Ave,Brooklyn,11206
Fresh Start Market Place,180 Montague St,Brooklyn,11201
Freshco Grocery And Deli,97 Stanton St,New York,10002
Fruit Bowl,148 W Park Ave,Long Beach,11561
Fusion Juice Bar,30-93 38th St,Astoria,11103
Galaxy Gourmet Deli,3778 Broadway,New York,10032
Garden Deli,185 Starr St,Brooklyn,11237
Gentle Brew,1 National Blvd,Long Beach,11561
Getty,49-25 Van Dam St,Long Island City,11101
Gourmet 157,157 Christopher St,New York,10014
Gourmet A Fare,1133 Manhattan Ave,Brooklyn,11222
Gourmet Deli 114,114 Wyckoff Ave,Brooklyn,11237
Gourmet Deli Grill,6318 18th Ave,Brooklyn,11204
Gourmet Deli,101 Nassau Ave,Brooklyn,11222
Gourmet Deli,22-17 Astoria Blvd,Astoria,11102
Gourmet Deli,243 Broome St,New York,10002
Graces Market Place,1299 2nd Ave,New York,10065
Graham Garden,359 Graham Ave,Brooklyn,11211
Gramaton Deli,118 Gramatan Ave,Mount Vernon,10550
Grand Freedom Market,805 Grand St,Brooklyn,11211
Grand Gourmet,619 Grand St,Brooklyn,11211
Great Performances,304 Hudson St,New York,10013
Green Apple,375 Graham Ave,Brooklyn,11211
Green Apple,375 Graham,Brooklyn,11211
Green Blend,387 8th Ave,New York,10001
Green Forest Market,1520 Avenue M,Brooklyn,11230
Green Garden Deli,626 Manhattan Ave,Brooklyn,11222
Green Star Food,95 Delancey St,New York,10002
Green Valley Market,138-54 84th Drive,Briarwood,11435
Greenbay Organic Foods,31-10 30th Avenu,Astoria,11102
Greenpoint Deli Market,903 Manhattan Ave,Brooklyn,11222
Grenwich Social,1 W 13th St,New York,10011
Grocery Plus,188 Utica Ave,Brooklyn,11213
H & H Deli,249 Avenue U,Brooklyn,11223
H & H Deli,471 6th Ave,New York,10011
H - Yard Gourmet Deli,450 9th Ave,New York,10018
H Village Farm,61 1st Ave,New York,10003
Haha Fresh,195 9th Ave,New York,10011
Halsey,245 Malcom X Blvd,Brooklyn,11233
Hana Deli,534 Metropolitan Ave,Brooklyn,11211
Hana Natural & Health,24 Wyckoff Ave,Brooklyn,11237
Hanahreum,156-40 Northern Blvd,Flushing,11354
Hanan Deli & Grocery,1603 Avenue U,Brooklyn,11229
Hans Deli,645 Broadway,New York,10012
Happy Deli,1200 White Plains Rd,Bronx,10472
Harvest Market,75 Fleetwood Ave,Mount Vernon,10552
Health Green Deli,48 3rd Ave,New York,10003
Healthy Choice,1776 Madison Ave,New York,10035
Healthy Market Place,217 1st Ave,New York,10003
Heavenly Market & Deli,77 3rd Ave,New York,10003
Heavenly Market,44 E 8th St,New York,10003
Hewlett Food Mart,300 Mill Rd,Hewlett,11557
Hi Mango Market,1055 Flushing Ave,Brooklyn,11215
Hi Mango Natural Market,341 Knickerbocker Ave,Brooklyn,11237
Hilton Garden Inn / West 35th Street,63 W 35th St,New York,10001
Hollyland Market,122 Saint Marks Place,New York,10009
Hotel W - 1567 Broadway,1567 Broadway,New York,10036
Howard Market,54 Howard Ave,Brooklyn,11221
Hudson Food Court,333 Hudson St,New York,10013
Hudson Food Market,312 11th Ave,New York,10001
Hudson Gourmet,514 Hudson St,New York,10014
Hudson Market,303 10th Ave,New York,10001
Hudson Street Pharmacy,345 Hudson St,New York,10014
I & I Deli,59 Norman Ave,Brooklyn,11222
Iconic Magazine,215 Bowery St,Brooklyn,11224
In N Out Deli Grill,2328 Mermaid Ave,Brooklyn,11224
Indy Market,1165 Broadway,Brooklyn,11221
International News,1508 Avenue J,Brooklyn,11230
International News,1524 Avenue M,Brooklyn,11230
Intoxx Fitness,2071 Clove Rd,Staten Island,10304
Isaac Apple,329 Church Ave,Brooklyn,11218
Island Convenience,2031 Forest Ave,Staten Island,10303
Island Soft Pretzel,6 Ferry Terminal Dr,Staten Island,10301
Iv Seasons Deli,1802 Ave U,Brooklyn,11229
J & J General Store,233 Port Richmond,Staten Island,10302
J & S Power Beverage,30-28 Murray Ln,Flushing,11354
J And J Grocery,1840 Coney Island Ave,Brooklyn,11230
J And P Lobby,601 W 26th St,New York,10001
J.w. Market,242 Sullivan St,New York,10012
Jcc Manhattan,334 Amsterdam Ave,New York,10023
Jeannies Deli,194 8th Ave,New York,10011
Jet Rock,La Guardia Airport,Flushing,11374
Jia Li / C&p Beer,151 Knickerbocker Ave,Brooklyn,11237
Jia Li Beverage Wholesale,208 Clifton Place,Brooklyn,11216
Joanns Deli,1373 Bay St,Staten Island,10305
Joes Busy Corner Gourmet Deli,552 Driggs Ave,Brooklyn,11211
Johns Deli & Grocery 260,260 Nassau Ave,Brooklyn,11222
Js Nostrand Market,1881 Nostrand Ave,Brooklyn,11226
Jubilee Market,447 Broadway,New York,10003
Just Delicious Deli,80 Varick St,New York,10013
K & J Deli & Organic,52 N 11th St,Brooklyn,11249
K & M Gourmet Deli,146 Nassau Ave,Brooklyn,11222
K And K Convenience Store,364 W 23rd St,New York,10011
Khims Millennium Iv Inc,260 Bushwick Ave,Brooklyn,11206
Kingdom Food,443 Morris Park Ave,Bronx,10462
Kings 1360 C-store,1360 Hempstead Turnpike,Elmont,11003
Kings 2115 Linden C-store,2115 Linden Blvd,Elmont,11003
Kings Cedarhurst Car Care Inc,360 Rockaway Turnpike,Cedarhurst,11516
Kings Convenience,1426 Kings Highway,Brooklyn,11229
Kings County Hospital (cafeteria),451 Clarkson Ave,Brooklyn,11203
Kings Cross Bay Car Care Inc,135-45 Cross Bay Blvd,Ozone Park,11417
Kings Deli Grocery,1702 E 16th St,Brooklyn,11229
Kings Express Deli,1801 Ave U,Brooklyn,11229
Kings Hewlett Service Station Inc,1291 Peninsula Blvd,Hewlett,11557
Kings Pharmacy & Surgical,492 Clarkson Ave,Brooklyn,11203
Kings Pharmacy,1054 W Beech St,Long Beach,11561
L & M Deli,80 7th Ave,New York,10011
L Stop Gourmet,223 Montrose Ave,Brooklyn,11206
L-mos Market,51 Morgan Ave,Brooklyn,11237
L.b.railroad Street Newsstand,23 W Park Ave,Long Beach,11561
La Bella,7901 13th Ave,Brooklyn,11228
La Luna Deli & Cafe,44-01 30th Ave,Astoria,11103
Lai Lai,4520 Broadway,New York,10040
Lama Trading-natural Frtr,12-01 Jackson Ave,Long Island City,11101
Lander Market,1440 Richmond Ave,Staten Island,10314
Late Night & Late Gourmet,905 Metropolitan Ave,Brooklyn,11211
Latin Grill Factory,89-02 Merrick Blvd,Jamaica,11432
Le Basket,683 Broadway,New York,10012
Lemon Tree Natural Market,387 Graham Ave,Brooklyn,11211
Les Mini Mart,127 Rivington St,New York,10002
Lga Airport,Marine Air Terminal,Flushing,11371
Lincoln Gourmet Deli,522 9th Ave,New York,10018
Lincoln Market,33 Lincoln Place,Brooklyn,11225
Lincoln Newstand,60 E 42nd St,New York,10165
Loho Gourmet Deli,204 Clinton St,New York,10002
London Terrance,252 10th Ave,New York,10001
Ls Quad Cafe,1 Pro Health Plaza,Lake Success,11042
Lucky 7 Gourmet,400 Bedford Ave,Brooklyn,11249
Lucky Seven Smoke Shop N Deli,2713 Avenue U,Brooklyn,11229
M & N Deli Grocery,96-27 Atlantic Ave,Woodhaven,11421
M & N Deli Organic,186 Broadway,Brooklyn,11211
M & O Market,124 Thompson St,New York,10012
M & Z Deli,2162 Forest Ave,Staten Island,10303
M.v Quick Stop Corp,2875 W 8th St,Brooklyn,11224
M2m,19 Waverly Place,New York,10003
Macquarie - Cafe 18,120 W 56th St,New York,10019
Mahant 342,342 Canal St,New York,10013
Mamamoo Hilarious Kitchen,350 W 37th St,New York,10018
Manhattan Deli Store Corp,57 Audubon Ave,New York,10032
Mannys Deli & Grocery,146 Graham Ave,Brooklyn,11206
Manor Superette,931 Manor Rd,Staten Island,10314
Marble Hill Garden Of Edin,5187 Broadway,Bronx,10468
Mark Twain Deli,120 Bedford Ave,Brooklyn,11249
Marketplace Emporium #1980,810 8th Ave,New York,10019
Martin News,3 World Financial Center,New York,10285
Martin News,55 Water St,New York,10041
Martins News - 388 Greenwch,388 Greenwich St,New York,10013
Master Mini Market,129 Ridge St,New York,10002
Matco,72 Bear St,Staten Island,10304
Mbj @ Bmcc. Inc.,199 Chambers St,New York,10007
Mccarren Deli & Grill,57 Nassau Ave,Brooklyn,11222
Mclean Pharmacy,211 Mclean Ave,Yonkers,10705
Mercedes House Market,550 W 54th St,New York,10019
Mercedes House Market,550 West 54th St,New York,10019
Mes Tropical Bar,408 E 8th St,New York,10009
Met Fresh,1381 Myrtle Ave,Brooklyn,11237
Metro 525 Deli,525 Metropolitan Ave,Brooklyn,11211
Metro Deli,78 Havemeyer St,Brooklyn,11211
Metro Organic,135 Metropolitan Ave,Brooklyn,11249
Metropolitan City Market,1142 Bedford Ave,Brooklyn,11216
Metropolitan City Market,150 Myrtle Ave,Brooklyn,11201
Milkman / Mitchells Ny,48-01 31st St,Long Island City,11101
Mini Es Wholesome Foods,227 E 7th St,New York,10009
Mini Market,1101 Avenue S,Brooklyn,11223
Moca Deli Grocery,4183 Broadway,New York,10033
Moca Deli,4183 Vroadway,Manhattan,10033
Modern Gourmet,793 Broadway,New York,10003
Moguil Halal,144 Wyckoff Ave,Brooklyn,11237
Mom & Pops Organic Market,889 Manhattan Ave,Brooklyn,11222
Monarch Beverage,505 Long Beach Blvd,Long Beach,11561
Mr Lemon,410 Knickerbocker Ave,Brooklyn,11237
Mr. Berry,892 Manhattan Ave,Brooklyn,11222
Mr. Grahams Market,344 Graham Ave,Brooklyn,11211
Mr. Lime & Mr. Kiwi,167 Bedford Ave,Brooklyn,11211
Mr. Nice Guy Deli,92 Manhattan Ave,Brooklyn,11206
Mr. Pina Fruit & Vegetables,219 Havemeyer St,Brooklyn,11211
Mr. Plum,658 Manhattan Ave,Brooklyn,11222
Nadal 1,3377 Broadway,New York,10031
Narketplace - Brooklyn,1781 Broadway,Brooklyn,11207
Native Bean,36b Ave A,New York,10009
Natural Frontier - Astoria,31-28 Ditmars Blvd,Astoria,11105
Natural Frontier Market - Bklyn,1102 Cortelyou Rd,Brooklyn,11218
Natural Organic Deli Corp,1203 Myrtle Ave,Brooklyn,11221
Natural Valley Market Inc,182 Ralph Ave,Brooklyn,11233
New Family Market / Bueno East Market,36 Ave A,New York,10009
New Riverdale Gourmet Deli,452 W 238th St,Bronx,10463
New Smoke Shop Convenience,57-16 Roosevelt,Queens,11317
New Soho Chocolate Candy & Ice Cream,203 Spring St,New York,10012
New Sun Deli,416 E 189 St,Bronx,11378
New University Deli,603 W 168th St,New York,10032
New York Athletic Club,180 Central Park South,New York,10019
New York Deli,82 Havemeyer St,Brooklyn,11211
News And Smoke Shop,118 Delancey St,New York,10002
Norman Cafe,93 Norman Ave,Brooklyn,11222
North 7 Deli (market),183 Bedford Ave,Brooklyn,11211
North Elm Health,1695 1st Ave,New York,10128
Not Guilty,19 Hyatt St,Staten Island,10301
Nsa - 1635 Lexington Avenue,1635 Lexington Ave,New York,10029
Nslism,600 Community Drive,Manhasset,11030
Nucare Pharmacy,246 9th Ave,New York,10001
Nyc Fresh Market,1660 Madison Ave,New York,10029
Nyit - Nyc,1855 Broadway,New York,10023
Oasis Snacks,4014 1st Ave,Brooklyn,11232
Oasis Snacks,80 39th St,Brooklyn,11232
Ocean 2 Deli,2970 Ocean Ave,Brooklyn,11235
Ocean Mini Mart,3917 18th Ave,Brooklyn,11218
Ohs Mini Market,227 Nassau Ave,Brooklyn,11222
Olive Deli,891 Grand St,Brooklyn,11211
Olive Tree Deli,3060 Broadway,New York,10027
Omega Salad Bar & Deli,351 W 125th St,New York,10027
Omg Beverage Inc,54-24 82nd St,Elmhurst,11373
On The 6 Deli,1840 Westchester Ave,Bronx,10472
One Drop Distributor,520 E 76th St,New York,10021
One Essex Market,Essex St,New York,10002
Optimo Cards & Gifts,490 Elmont Rd,Elmont,11003
Orange Tree Market,121 Graham Ave,Brooklyn,11206
Orange Tree Naturals,517 Grand St,Brooklyn,11211
Organic Deli & Grocery Corp,1018 Manhattan Ave,Brooklyn,11222
Organic Gourmet Deli Corp,376 Union Ave,Brooklyn,11211
Organic Planet Corp,43 Bogart St,Brooklyn,11206
Organic Planet,205 N 9th St,Brooklyn,11211
P&p Candy Store Inc,790 Manhattan Ave,Brooklyn,11222
Pantry Deli,405 W 23rd St,New York,10011
Paradise Market,244 10th Ave,New York,10001
Park Terrace Deli,510 West 218 West,New York,10034
Parkview Market,101 Bedford Ave,Brooklyn,11211
Pauls Market Place,385 City Island Ave,Bronx,10464
Penn Shusi,2 Penn Plaza,New York,10121
Pioneer - 300 W 110,300 W 110th St,New York,10026
Pioneer-289 Columbus Ave,289 Columbus Ave,New York,10023
Pk Smoke & Cards,254 E Park Ave,Long Beach,11561
Planet Smoothie,1 Penn Plaza,New York,10119
Plaza Fruit & Grocery,37 Newkirk Plaza,Brooklyn,11226
Plaza Gourmet Deli,12 Newkirk Plaza,Brooklyn,11226
Pleroma,767 2nd Ave,New York,10017
Ponchos Gourmet Deli,1424 Sheepshead Bay Rd,Brooklyn,11235
Poppys Deli,191 Ave A,New York,10009
Presbyterian Deli,1081 Saint Nicholas Ave,New York,10032
Prestige Cafe & Deli,228 Fort Washington Ave,New York,10032
Prosultos Mexicanos,1105 Church Ave,Brooklyn,11218
Q Mart,4311 Broadway,New York,10033
Qnn Food,107 E 125th St,New York,10035
Queens North Task Force,137-58 Northern Blvd,Flushing,11354
Quentin Rd Convenience,1101 Quentin Rd,Brooklyn,11229
Quick Pick Convenience,136 Main St,East Rockaway,11518
Radhan Krishna,1806 Kings Hwy,Brooklyn,11229
Recreation At The Moxy,26 Ann St,New York,10038
Richmond Gourmet,1471 Richmond Ave,Staten Island,10314
Riverside Gourmet Market,3779 Broadway,New York,10032
Rivington Foods,210 Rivington St,New York,10002
Rma-scholastic Bldg,120 Mercer St,New York,10012
Rockaway Express,114-02 Rockaway Blvd,South Ozone Park,11420
Rockaway Gourmet,9627 Farragut Rd,Brooklyn,11236
Royal Finest Deli & Grill,37 1/2 W Grand St,Mount Vernon,10552
Royal Grocery,780 Metropolitan Ave,Brooklyn,11211
Ryder Joe Deli,1201 2nd Ave,New Hyde Park,11040
Sam Deli,3459 Broadway,New York,10031
Sam Organic Deli,340 Grand St,Brooklyn,11211
Santa Barbara,551 E 11th St,New York,10009
Savory Deli & Grocery,1840 Amsterdam Ave,New York,10031
Sheen Brothers,157 Ave B,New York,10009
Sheepshead Bay Fruit & Vegetable,1717 Avenue Z,Brooklyn,11235
Shell Gas,2001 Cropsey Ave,Brooklyn,11214
Shop Fair - Yonkers,113 New Main St,Yonkers,10701
Shop Fair Supermarket,1125 Fulton St,Brooklyn,11238
Shop Fair Supermarket,Adam Clayton Powell Jr Blvd,New York,10027
Shop Fair,306 E 170th St,Bronx,10456
Shop N Click,161-01 Northern Blvd,Flushing,11358
Smile To Go Flatiron,23 Lexington Ave,New York,10010
Smoke Shop Queens Plaza,25-17 Queens Plz N,Long Island City,11101
Smoke Shop,61 Delancey St,New York,10002
Sodexho - Colgate Palmolive,300 Park Ave,New York,10022
Sodexho - Rosenman Kmz Rosenman,575 Madison Ave,New York,10022
Sodexo - Societe Generale Unit # 8833500,245 Park Ave,New York,10167
Soho Garden,40 Prince St,New York,10012
Soho News International,186 Prince St,New York,10012
Sohos Finest Market,17 Thompson St,New York,10013
South Brooklyn Beverage Inc.,1407 E 22nd St,Brooklyn,11210
Space Market,1 University Place,New York,10003
Spring Mart,202 Mott St,New York,10012
Sprout Market,984 Broadway,Brooklyn,10010
Spyros Deli,11 8th Ave,New York,10014
Square Deli,168 8th Ave,New York,10011
St. Marks Market,21 St Marks Pl,New York,10003
Stanton Smoke Shop,100 Stanton St,New York,10002
Statue Of Liberty Cafe,5 Ferry Terminal Dr,Staten Island,10301
Stay Fresh,889 Broadway,Brooklyn,11206
Stop 1 Deli,122 Suffolk St,New York,10002
Stop 1 Deli,172 Allen St,New York,10002
Stop N Go,39-58 61st St,Woodside,11377
Strawberry Deli,350 W 14th St,New York,10014
Sugar Deli,470 9th Ave,New York,10018
Sunac,150 N 7th St,Brooklyn,11249
Sunac,440 Union Ave,Brooklyn,11211
Sunny And Annie,94 Avenue B,New York,10009
Sunrise Mart,494 Broome Steet,Newy York,10013
Sunrise,72 Ralph Ave,Brooklyn,11221
Sunshine Express Deli,986 Gates Ave,Brooklyn,11221
Super Deli 627,627 Manhattan Ave,Brooklyn,11222
Super Foodtown,600 W 160th St,New York,10032
Super Fresh Food World,2475 Jericho Turnpike,Garden City,11040
Super Fresh,6400 Amboy Rd,Staten Island,10309
Sx Gourmet,115 Essex St,New York,10002
T & C Convenience Center,224-01 North Conduit Blvd,Jamaica,11413
T & J Beverage Inc.,48-12 Oceania St,Oakland Gardens,11364
T And E Express Deli,4178 Victory Blvd,Staten Island,10314
T.k. Grill,954 Broadway,Brooklyn,11221
Tapout Fitness,100-02 Rockaway Blvd,Ozone Park,11417
Taste-d Beverages Inc.,52 Lortel Ave,Staten Island,10314
Tastebuds Natural Foods,1807 Hylan Blvd,Staten Island,10305
The Beach Deli,2876 Gerritsen Ave,Brooklyn,11229
The Lunch Box,204 Bushwick Ave,Brooklyn,11206
The Standard Deli,188 Nassau Ave,Brooklyn,11222
Thirsty City BeverageFloral Park, New York, 11001,Floral Park
Thompsons Finest Deli,20 Thompson St,New York,10013
Tlc Tea House,103 E 2nd St,New York,10009
Toasties,599 Lexington Ave,New York,10022
Tompkin Finest Gourmet,153 Ave A,New York,10009
Tozt Cafe,59 4th Ave,New York,10003
Tribeca Finest,393 Canal St,New York,10013
Twisted Distributors,564 Beach 136th St,Rockaway Park,11694
Ultra,1501 Jericho Turnpike,New Hyde Park,11040
Urban Market,11 Broadway,Brooklyn,11249
Usa Deli,818 Manhattan Ave,Brooklyn,11222
V & K Beverages Trading Inc.,23-31 91st St,East Elmhurst,11369
Verdi Fresh,21-01 31st St,Astoria,11105
Vetelios Mrket Place,116-15 Metropolitan Ave,Richmond Hill,11418
Village Cafe And Smoke,136 1st Ave,New York,10009
Village Convenience.,8 Centre Ave,East Rockaway,11518
Village Farm,146 2nd Ave,New York,10003
Village Farms,113 1st Ave,New York,10003
Villas Market Place,5665 Broadway,Bronx,10463
Virginia Deli,1268 Virginia Deli,Bronx,10472
Vitality & Health,46-03 Broadway,Astoria,11103
Vitelios Marketplace,71-76 Yellowstone Blvd,Forest Hills,11375
Vitis Corner Market,112 Central Ave,Brooklyn,11221
Walk In Deli,87 Wythe Ave,Brooklyn,11249
West 21 Deli And Grocery,213 8th Ave,New York,10011
West Side Market,84 3rd Ave,New York,10003
West Village Finest Deli,84 7th Ave S,New York,10014
Wholesome Factory Market,530 Main St,New York,10044
William Organic Market,296 Leonard St,Brooklyn,11211
Wilsea Partners Llc,388 6th Ave,New York,10011
Winchester Deli,233-20 Hillside Ave,Queens Village,11427
Wykoff Deli,1034 Wyckoff Ave,Brooklyn,11237
Yankee Deli,647 E 11th St,New York,10009
Yards Bar And Grill - Motel 6,26-32 Skillman Ave,Long Island City,11101
Yem Yem Falafel,53 2nd Ave,New York,10003
Yummilicious Deli Corp,4119 Broadway,New York,10033